{
    "links": {
        "self": "http://www.neowsapp.com/rest/v1/neo/3744321?api_key=iIulBulltgU6a56xZRHN4H3l9WmuAYTsLGpBGhQ2"
    },
    "id": "3744321",
    "neo_reference_id": "3744321",
    "name": "(2016 CA248)",
    "designation": "2016 CA248",
    "nasa_jpl_url": "http://ssd.jpl.nasa.gov/sbdb.cgi?sstr=3744321",
    "absolute_magnitude_h": 27.8,
    "estimated_diameter": {
        "kilometers": {
            "estimated_diameter_min": 0.0073207399,
            "estimated_diameter_max": 0.016369672
        },
        "meters": {
            "estimated_diameter_min": 7.3207398935,
            "estimated_diameter_max": 16.3696720474
        },
        "miles": {
            "estimated_diameter_min": 0.0045488955,
            "estimated_diameter_max": 0.0101716395
        },
        "feet": {
            "estimated_diameter_min": 24.0181762721,
            "estimated_diameter_max": 53.70627484
        }
    },
    "is_potentially_hazardous_asteroid": false,
    "close_approach_data": [
        {
            "close_approach_date": "2016-02-09",
            "close_approach_date_full": "2016-Feb-09 11:37",
            "epoch_date_close_approach": 1455017820000,
            "relative_velocity": {
                "kilometers_per_second": "8.5513473937",
                "kilometers_per_hour": "30784.8506174496",
                "miles_per_hour": "19128.5089850481"
            },
            "miss_distance": {
                "astronomical": "0.0187694522",
                "lunar": "7.3013169058",
                "kilometers": "2807870.070186814",
                "miles": "1744729.5574294732"
            },
            "orbiting_body": "Earth"
        }
    ],
    "orbital_data": {
        "orbit_id": "5",
        "orbit_determination_date": "2019-07-19 05:25:59",
        "first_observation_date": "2016-02-15",
        "last_observation_date": "2016-02-17",
        "data_arc_in_days": 2,
        "observations_used": 21,
        "orbit_uncertainty": "8",
        "minimum_orbit_intersection": ".00979361",
        "jupiter_tisserand_invariant": "3.925",
        "epoch_osculation": "2457434.5",
        "eccentricity": ".4753090344735428",
        "semi_major_axis": "1.79951095096581",
        "inclination": "2.671788858245751",
        "ascending_node_longitude": "148.0512313112579",
        "orbital_period": "881.7189356505329",
        "perihelion_distance": ".9441871383376841",
        "perihelion_argument": "317.5117722388765",
        "aphelion_distance": "2.654834763593936",
        "perihelion_time": "2457401.258084247734",
        "mean_anomaly": "13.57245397251952",
        "mean_motion": ".4082933749567165",
        "equinox": "J2000",
        "orbit_class": {
            "orbit_class_type": "APO",
            "orbit_class_description": "Near-Earth asteroid orbits which cross the Earth’s orbit similar to that of 1862 Apollo",
            "orbit_class_range": "a (semi-major axis) > 1.0 AU; q (perihelion) < 1.017 AU"
        }
    },
    "is_sentry_object": false
}